[{"OBJECT_NAME":"STARLINK-30762","OBJECT_ID":"2023-167Y","EPOCH":"2026-03-09T05:49:52.188096","MEAN_MOTION":15.26733401,"ECCENTRICITY":0.00016288,"INCLINATION":42.9984,"RA_OF_ASC_NODE":146.1807,"ARG_OF_PERICENTER":278.2403,"MEAN_ANOMALY":81.8263,"EPHEMERIS_TYPE":0,"CLASSIFICATION_TYPE":"U","NORAD_CAT_ID":58197,"ELEMENT_SET_NO":999,"REV_AT_EPOCH":13091,"BSTAR":-8.9891572e-5,"MEAN_MOTION_DOT":-2.67e-5,"MEAN_MOTION_DDOT":0},{"OBJECT_NAME":"BRO-11","OBJECT_ID":"2023-174J","EPOCH":"2026-03-09T23:01:09.890400","MEAN_MOTION":15.26267731,"ECCENTRICITY":0.00104518,"INCLINATION":97.3961,"RA_OF_ASC_NODE":146.7679,"ARG_OF_PERICENTER":189.9892,"MEAN_ANOMALY":170.1141,"EPHEMERIS_TYPE":0,"CLASSIFICATION_TYPE":"U","NORAD_CAT_ID":58264,"ELEMENT_SET_NO":999,"REV_AT_EPOCH":12961,"BSTAR":0.00032296323,"MEAN_MOTION_DOT":8.313e-5,"MEAN_MOTION_DDOT":0}]
